[{"OBJECT_NAME":"STARLINK-32848","OBJECT_ID":"2025-018C","EPOCH":"2026-03-09T21:59:34.250496","MEAN_MOTION":15.3020619,"ECCENTRICITY":0.00010745,"INCLINATION":53.1596,"RA_OF_ASC_NODE":308.5039,"ARG_OF_PERICENTER":153.5938,"MEAN_ANOMALY":206.5118,"EPHEMERIS_TYPE":0,"CLASSIFICATION_TYPE":"U","NORAD_CAT_ID":62808,"ELEMENT_SET_NO":999,"REV_AT_EPOCH":6320,"BSTAR":0.00081657949,"MEAN_MOTION_DOT":0.00023908,"MEAN_MOTION_DDOT":0},{"OBJECT_NAME":"OBJECT D","OBJECT_ID":"2021-102D","EPOCH":"2026-03-09T14:47:14.426880","MEAN_MOTION":15.2846442,"ECCENTRICITY":0.0009157,"INCLINATION":97.3342,"RA_OF_ASC_NODE":112.2633,"ARG_OF_PERICENTER":187.6206,"MEAN_ANOMALY":172.4897,"EPHEMERIS_TYPE":0,"CLASSIFICATION_TYPE":"U","NORAD_CAT_ID":49398,"ELEMENT_SET_NO":999,"REV_AT_EPOCH":23880,"BSTAR":0.00046011,"MEAN_MOTION_DOT":0.00012697,"MEAN_MOTION_DDOT":0}]
